{
  "norad_id": 43879,
  "name": "ISAT",
  "history": [
    {
      "epoch": "2026-03-28T19:18:29.767680Z",
      "apogee_km": 409.0817468164896,
      "perigee_km": 403.7116527024573,
      "latitude_deg": 3.429512642053304e-06,
      "longitude_deg": -98.2135307663591,
      "height_km": 412.18368282532055,
      "semi_major_axis_km": 6784.533699759473,
      "eccentricity": 0.00039576,
      "inclination_deg": 97.59,
      "raan_deg": 17.6302,
      "arg_perigee_deg": 188.5412,
      "mean_anomaly_deg": 171.5774,
      "mean_motion_rev_day": 15.53541131
    },
    {
      "epoch": "2026-03-29T01:29:29.993280Z",
      "apogee_km": 408.9694557869725,
      "perigee_km": 403.60433337113955,
      "latitude_deg": 3.690074606161097e-05,
      "longitude_deg": 169.05468170377418,
      "height_km": 412.081439502298,
      "semi_major_axis_km": 6784.423894579056,
      "eccentricity": 0.0003954,
      "inclination_deg": 97.5897,
      "raan_deg": 17.9033,
      "arg_perigee_deg": 186.9362,
      "mean_anomaly_deg": 173.1837,
      "mean_motion_rev_day": 15.53578847
    },
    {
      "epoch": "2026-03-30T00:40:40.204704Z",
      "apogee_km": 408.65785130137374,
      "perigee_km": 402.92407538675434,
      "latitude_deg": 5.172966464881403e-05,
      "longitude_deg": -178.66758951187273,
      "height_km": 411.78390733833214,
      "semi_major_axis_km": 6783.927963344064,
      "eccentricity": 0.0004226,
      "inclination_deg": 97.5901,
      "raan_deg": 18.9258,
      "arg_perigee_deg": 183.5536,
      "mean_anomaly_deg": 176.5688,
      "mean_motion_rev_day": 15.53749209
    },
    {
      "epoch": "2026-03-30T05:18:53.214336Z",
      "apogee_km": 408.58985328377094,
      "perigee_km": 402.80595564422583,
      "latitude_deg": 5.7874880064616466e-05,
      "longitude_deg": 111.79247044552459,
      "height_km": 411.71814336950655,
      "semi_major_axis_km": 6783.834904463998,
      "eccentricity": 0.0004263,
      "inclination_deg": 97.5902,
      "raan_deg": 19.1305,
      "arg_perigee_deg": 182.7108,
      "mean_anomaly_deg": 177.4123,
      "mean_motion_rev_day": 15.5378118
    }
  ]
}